{
  "type": "FeatureCollection",
  "features": [
    {
      "type": "Feature",
      "properties": {
        "model": "預測軌跡連線",
        "color": "#00f2fe",
        "type": "track_line"
      },
      "geometry": {
        "type": "LineString",
        "coordinates": [
          [
            116.94,
            15.94
          ],
          [
            116.23,
            15.46
          ],
          [
            114.38,
            15.96
          ],
          [
            113.62,
            15.95
          ],
          [
            114.48,
            15.89
          ],
          [
            114.0,
            15.92
          ],
          [
            114.39,
            15.7
          ],
          [
            114.85,
            15.88
          ],
          [
            116.86,
            15.86
          ],
          [
            117.91,
            16.09
          ],
          [
            115.35,
            15.9
          ],
          [
            115.52,
            15.76
          ],
          [
            116.74,
            16.05
          ],
          [
            117.36,
            16.0
          ],
          [
            115.82,
            15.86
          ],
          [
            116.89,
            16.16
          ],
          [
            117.47,
            16.2
          ],
          [
            116.95,
            16.21
          ],
          [
            116.15,
            15.85
          ],
          [
            115.7,
            15.87
          ],
          [
            115.85,
            16.12
          ],
          [
            116.04,
            16.12
          ],
          [
            115.79,
            16.04
          ],
          [
            115.67,
            16.15
          ],
          [
            115.85,
            16.12
          ],
          [
            115.92,
            16.08
          ],
          [
            114.91,
            16.16
          ],
          [
            114.66,
            15.97
          ],
          [
            114.97,
            16.16
          ],
          [
            115.84,
            16.08
          ],
          [
            115.46,
            16.07
          ],
          [
            116.45,
            16.0
          ],
          [
            114.82,
            16.18
          ],
          [
            116.04,
            16.19
          ],
          [
            116.04,
            16.19
          ],
          [
            116.42,
            16.25
          ],
          [
            115.1,
            16.13
          ],
          [
            115.0,
            16.26
          ],
          [
            115.7,
            16.3
          ],
          [
            116.11,
            16.3
          ],
          [
            115.79,
            16.28
          ]
        ]
      }
    },
    {
      "type": "Feature",
      "properties": {
        "time": "10-07 14:00",
        "model": "ECMWF 質心追蹤",
        "wind_speed": "35 km/h",
        "pressure": "1010.9 hPa",
        "category": "熱帶低氣壓",
        "color": "#3b82f6",
        "dist_hk": "767 km",
        "position": "15.94°N, 116.94°E",
        "type": "track_point"
      },
      "geometry": {
        "type": "Point",
        "coordinates": [
          116.94,
          15.94
        ]
      }
    },
    {
      "type": "Feature",
      "properties": {
        "time": "10-07 17:00",
        "model": "ECMWF 質心追蹤",
        "wind_speed": "28 km/h",
        "pressure": "1010.3 hPa",
        "category": "熱帶低氣壓",
        "color": "#3b82f6",
        "dist_hk": "793 km",
        "position": "15.46°N, 116.23°E",
        "type": "track_point"
      },
      "geometry": {
        "type": "Point",
        "coordinates": [
          116.23,
          15.46
        ]
      }
    },
    {
      "type": "Feature",
      "properties": {
        "time": "10-08 02:00",
        "model": "ECMWF 質心追蹤",
        "wind_speed": "33 km/h",
        "pressure": "1011.4 hPa",
        "category": "熱帶低氣壓",
        "color": "#3b82f6",
        "dist_hk": "707 km",
        "position": "15.96°N, 114.38°E",
        "type": "track_point"
      },
      "geometry": {
        "type": "Point",
        "coordinates": [
          114.38,
          15.96
        ]
      }
    },
    {
      "type": "Feature",
      "properties": {
        "time": "10-08 05:00",
        "model": "ECMWF 質心追蹤",
        "wind_speed": "33 km/h",
        "pressure": "1010.6 hPa",
        "category": "熱帶低氣壓",
        "color": "#3b82f6",
        "dist_hk": "711 km",
        "position": "15.95°N, 113.62°E",
        "type": "track_point"
      },
      "geometry": {
        "type": "Point",
        "coordinates": [
          113.62,
          15.95
        ]
      }
    },
    {
      "type": "Feature",
      "properties": {
        "time": "10-08 14:00",
        "model": "ECMWF 質心追蹤",
        "wind_speed": "33 km/h",
        "pressure": "1010.1 hPa",
        "category": "熱帶低氣壓",
        "color": "#3b82f6",
        "dist_hk": "716 km",
        "position": "15.89°N, 114.48°E",
        "type": "track_point"
      },
      "geometry": {
        "type": "Point",
        "coordinates": [
          114.48,
          15.89
        ]
      }
    },
    {
      "type": "Feature",
      "properties": {
        "time": "10-09 02:00",
        "model": "ECMWF 質心追蹤",
        "wind_speed": "37 km/h",
        "pressure": "1010.1 hPa",
        "category": "熱帶低氣壓",
        "color": "#3b82f6",
        "dist_hk": "712 km",
        "position": "15.92°N, 114.0°E",
        "type": "track_point"
      },
      "geometry": {
        "type": "Point",
        "coordinates": [
          114.0,
          15.92
        ]
      }
    },
    {
      "type": "Feature",
      "properties": {
        "time": "10-09 05:00",
        "model": "ECMWF 質心追蹤",
        "wind_speed": "26 km/h",
        "pressure": "1009.4 hPa",
        "category": "熱帶低氣壓",
        "color": "#3b82f6",
        "dist_hk": "736 km",
        "position": "15.7°N, 114.39°E",
        "type": "track_point"
      },
      "geometry": {
        "type": "Point",
        "coordinates": [
          114.39,
          15.7
        ]
      }
    },
    {
      "type": "Feature",
      "properties": {
        "time": "10-09 08:00",
        "model": "ECMWF 質心追蹤",
        "wind_speed": "38 km/h",
        "pressure": "1011.3 hPa",
        "category": "熱帶低氣壓",
        "color": "#3b82f6",
        "dist_hk": "720 km",
        "position": "15.88°N, 114.85°E",
        "type": "track_point"
      },
      "geometry": {
        "type": "Point",
        "coordinates": [
          114.85,
          15.88
        ]
      }
    },
    {
      "type": "Feature",
      "properties": {
        "time": "10-09 11:00",
        "model": "ECMWF 質心追蹤",
        "wind_speed": "33 km/h",
        "pressure": "1011.5 hPa",
        "category": "熱帶低氣壓",
        "color": "#3b82f6",
        "dist_hk": "772 km",
        "position": "15.86°N, 116.86°E",
        "type": "track_point"
      },
      "geometry": {
        "type": "Point",
        "coordinates": [
          116.86,
          15.86
        ]
      }
    },
    {
      "type": "Feature",
      "properties": {
        "time": "10-09 14:00",
        "model": "ECMWF 質心追蹤",
        "wind_speed": "32 km/h",
        "pressure": "1008.8 hPa",
        "category": "熱帶低氣壓",
        "color": "#3b82f6",
        "dist_hk": "796 km",
        "position": "16.09°N, 117.91°E",
        "type": "track_point"
      },
      "geometry": {
        "type": "Point",
        "coordinates": [
          117.91,
          16.09
        ]
      }
    },
    {
      "type": "Feature",
      "properties": {
        "time": "10-09 17:00",
        "model": "ECMWF 質心追蹤",
        "wind_speed": "37 km/h",
        "pressure": "1008.7 hPa",
        "category": "熱帶低氣壓",
        "color": "#3b82f6",
        "dist_hk": "724 km",
        "position": "15.9°N, 115.35°E",
        "type": "track_point"
      },
      "geometry": {
        "type": "Point",
        "coordinates": [
          115.35,
          15.9
        ]
      }
    },
    {
      "type": "Feature",
      "properties": {
        "time": "10-09 20:00",
        "model": "ECMWF 質心追蹤",
        "wind_speed": "42 km/h",
        "pressure": "1010.1 hPa",
        "category": "熱帶風暴",
        "color": "#06b6d4",
        "dist_hk": "743 km",
        "position": "15.76°N, 115.52°E",
        "type": "track_point"
      },
      "geometry": {
        "type": "Point",
        "coordinates": [
          115.52,
          15.76
        ]
      }
    },
    {
      "type": "Feature",
      "properties": {
        "time": "10-09 23:00",
        "model": "ECMWF 質心追蹤",
        "wind_speed": "42 km/h",
        "pressure": "1010.3 hPa",
        "category": "熱帶風暴",
        "color": "#06b6d4",
        "dist_hk": "747 km",
        "position": "16.05°N, 116.74°E",
        "type": "track_point"
      },
      "geometry": {
        "type": "Point",
        "coordinates": [
          116.74,
          16.05
        ]
      }
    },
    {
      "type": "Feature",
      "properties": {
        "time": "10-10 02:00",
        "model": "ECMWF 質心追蹤",
        "wind_speed": "37 km/h",
        "pressure": "1008.6 hPa",
        "category": "熱帶低氣壓",
        "color": "#3b82f6",
        "dist_hk": "778 km",
        "position": "16.0°N, 117.36°E",
        "type": "track_point"
      },
      "geometry": {
        "type": "Point",
        "coordinates": [
          117.36,
          16.0
        ]
      }
    },
    {
      "type": "Feature",
      "properties": {
        "time": "10-10 05:00",
        "model": "ECMWF 質心追蹤",
        "wind_speed": "39 km/h",
        "pressure": "1008.3 hPa",
        "category": "熱帶低氣壓",
        "color": "#3b82f6",
        "dist_hk": "739 km",
        "position": "15.86°N, 115.82°E",
        "type": "track_point"
      },
      "geometry": {
        "type": "Point",
        "coordinates": [
          115.82,
          15.86
        ]
      }
    },
    {
      "type": "Feature",
      "properties": {
        "time": "10-10 08:00",
        "model": "ECMWF 質心追蹤",
        "wind_speed": "41 km/h",
        "pressure": "1009.8 hPa",
        "category": "熱帶風暴",
        "color": "#06b6d4",
        "dist_hk": "742 km",
        "position": "16.16°N, 116.89°E",
        "type": "track_point"
      },
      "geometry": {
        "type": "Point",
        "coordinates": [
          116.89,
          16.16
        ]
      }
    },
    {
      "type": "Feature",
      "properties": {
        "time": "10-10 11:00",
        "model": "ECMWF 質心追蹤",
        "wind_speed": "32 km/h",
        "pressure": "1009.9 hPa",
        "category": "熱帶低氣壓",
        "color": "#3b82f6",
        "dist_hk": "763 km",
        "position": "16.2°N, 117.47°E",
        "type": "track_point"
      },
      "geometry": {
        "type": "Point",
        "coordinates": [
          117.47,
          16.2
        ]
      }
    },
    {
      "type": "Feature",
      "properties": {
        "time": "10-10 14:00",
        "model": "ECMWF 質心追蹤",
        "wind_speed": "32 km/h",
        "pressure": "1008.0 hPa",
        "category": "熱帶低氣壓",
        "color": "#3b82f6",
        "dist_hk": "739 km",
        "position": "16.21°N, 116.95°E",
        "type": "track_point"
      },
      "geometry": {
        "type": "Point",
        "coordinates": [
          116.95,
          16.21
        ]
      }
    },
    {
      "type": "Feature",
      "properties": {
        "time": "10-10 17:00",
        "model": "ECMWF 質心追蹤",
        "wind_speed": "37 km/h",
        "pressure": "1007.5 hPa",
        "category": "熱帶低氣壓",
        "color": "#3b82f6",
        "dist_hk": "749 km",
        "position": "15.85°N, 116.15°E",
        "type": "track_point"
      },
      "geometry": {
        "type": "Point",
        "coordinates": [
          116.15,
          15.85
        ]
      }
    },
    {
      "type": "Feature",
      "properties": {
        "time": "10-10 20:00",
        "model": "ECMWF 質心追蹤",
        "wind_speed": "41 km/h",
        "pressure": "1009.1 hPa",
        "category": "熱帶風暴",
        "color": "#06b6d4",
        "dist_hk": "735 km",
        "position": "15.87°N, 115.7°E",
        "type": "track_point"
      },
      "geometry": {
        "type": "Point",
        "coordinates": [
          115.7,
          15.87
        ]
      }
    },
    {
      "type": "Feature",
      "properties": {
        "time": "10-10 23:00",
        "model": "ECMWF 質心追蹤",
        "wind_speed": "44 km/h",
        "pressure": "1010.3 hPa",
        "category": "熱帶風暴",
        "color": "#06b6d4",
        "dist_hk": "712 km",
        "position": "16.12°N, 115.85°E",
        "type": "track_point"
      },
      "geometry": {
        "type": "Point",
        "coordinates": [
          115.85,
          16.12
        ]
      }
    },
    {
      "type": "Feature",
      "properties": {
        "time": "10-11 02:00",
        "model": "ECMWF 質心追蹤",
        "wind_speed": "41 km/h",
        "pressure": "1009.3 hPa",
        "category": "熱帶風暴",
        "color": "#06b6d4",
        "dist_hk": "717 km",
        "position": "16.12°N, 116.04°E",
        "type": "track_point"
      },
      "geometry": {
        "type": "Point",
        "coordinates": [
          116.04,
          16.12
        ]
      }
    },
    {
      "type": "Feature",
      "properties": {
        "time": "10-11 05:00",
        "model": "ECMWF 質心追蹤",
        "wind_speed": "32 km/h",
        "pressure": "1009.6 hPa",
        "category": "熱帶低氣壓",
        "color": "#3b82f6",
        "dist_hk": "719 km",
        "position": "16.04°N, 115.79°E",
        "type": "track_point"
      },
      "geometry": {
        "type": "Point",
        "coordinates": [
          115.79,
          16.04
        ]
      }
    },
    {
      "type": "Feature",
      "properties": {
        "time": "10-11 08:00",
        "model": "ECMWF 質心追蹤",
        "wind_speed": "34 km/h",
        "pressure": "1011.4 hPa",
        "category": "熱帶低氣壓",
        "color": "#3b82f6",
        "dist_hk": "704 km",
        "position": "16.15°N, 115.67°E",
        "type": "track_point"
      },
      "geometry": {
        "type": "Point",
        "coordinates": [
          115.67,
          16.15
        ]
      }
    },
    {
      "type": "Feature",
      "properties": {
        "time": "10-11 11:00",
        "model": "ECMWF 質心追蹤",
        "wind_speed": "29 km/h",
        "pressure": "1011.7 hPa",
        "category": "熱帶低氣壓",
        "color": "#3b82f6",
        "dist_hk": "712 km",
        "position": "16.12°N, 115.85°E",
        "type": "track_point"
      },
      "geometry": {
        "type": "Point",
        "coordinates": [
          115.85,
          16.12
        ]
      }
    },
    {
      "type": "Feature",
      "properties": {
        "time": "10-11 14:00",
        "model": "ECMWF 質心追蹤",
        "wind_speed": "30 km/h",
        "pressure": "1009.9 hPa",
        "category": "熱帶低氣壓",
        "color": "#3b82f6",
        "dist_hk": "718 km",
        "position": "16.08°N, 115.92°E",
        "type": "track_point"
      },
      "geometry": {
        "type": "Point",
        "coordinates": [
          115.92,
          16.08
        ]
      }
    },
    {
      "type": "Feature",
      "properties": {
        "time": "10-11 17:00",
        "model": "ECMWF 質心追蹤",
        "wind_speed": "31 km/h",
        "pressure": "1009.9 hPa",
        "category": "熱帶低氣壓",
        "color": "#3b82f6",
        "dist_hk": "689 km",
        "position": "16.16°N, 114.91°E",
        "type": "track_point"
      },
      "geometry": {
        "type": "Point",
        "coordinates": [
          114.91,
          16.16
        ]
      }
    },
    {
      "type": "Feature",
      "properties": {
        "time": "10-11 20:00",
        "model": "ECMWF 質心追蹤",
        "wind_speed": "30 km/h",
        "pressure": "1011.0 hPa",
        "category": "熱帶低氣壓",
        "color": "#3b82f6",
        "dist_hk": "708 km",
        "position": "15.97°N, 114.66°E",
        "type": "track_point"
      },
      "geometry": {
        "type": "Point",
        "coordinates": [
          114.66,
          15.97
        ]
      }
    },
    {
      "type": "Feature",
      "properties": {
        "time": "10-11 23:00",
        "model": "ECMWF 質心追蹤",
        "wind_speed": "38 km/h",
        "pressure": "1011.9 hPa",
        "category": "熱帶低氣壓",
        "color": "#3b82f6",
        "dist_hk": "690 km",
        "position": "16.16°N, 114.97°E",
        "type": "track_point"
      },
      "geometry": {
        "type": "Point",
        "coordinates": [
          114.97,
          16.16
        ]
      }
    },
    {
      "type": "Feature",
      "properties": {
        "time": "10-12 02:00",
        "model": "ECMWF 質心追蹤",
        "wind_speed": "32 km/h",
        "pressure": "1010.6 hPa",
        "category": "熱帶低氣壓",
        "color": "#3b82f6",
        "dist_hk": "716 km",
        "position": "16.08°N, 115.84°E",
        "type": "track_point"
      },
      "geometry": {
        "type": "Point",
        "coordinates": [
          115.84,
          16.08
        ]
      }
    },
    {
      "type": "Feature",
      "properties": {
        "time": "10-12 05:00",
        "model": "ECMWF 質心追蹤",
        "wind_speed": "32 km/h",
        "pressure": "1010.9 hPa",
        "category": "熱帶低氣壓",
        "color": "#3b82f6",
        "dist_hk": "708 km",
        "position": "16.07°N, 115.46°E",
        "type": "track_point"
      },
      "geometry": {
        "type": "Point",
        "coordinates": [
          115.46,
          16.07
        ]
      }
    },
    {
      "type": "Feature",
      "properties": {
        "time": "10-12 14:00",
        "model": "ECMWF 質心追蹤",
        "wind_speed": "28 km/h",
        "pressure": "1011.1 hPa",
        "category": "熱帶低氣壓",
        "color": "#3b82f6",
        "dist_hk": "742 km",
        "position": "16.0°N, 116.45°E",
        "type": "track_point"
      },
      "geometry": {
        "type": "Point",
        "coordinates": [
          116.45,
          16.0
        ]
      }
    },
    {
      "type": "Feature",
      "properties": {
        "time": "10-12 17:00",
        "model": "ECMWF 質心追蹤",
        "wind_speed": "30 km/h",
        "pressure": "1011.1 hPa",
        "category": "熱帶低氣壓",
        "color": "#3b82f6",
        "dist_hk": "686 km",
        "position": "16.18°N, 114.82°E",
        "type": "track_point"
      },
      "geometry": {
        "type": "Point",
        "coordinates": [
          114.82,
          16.18
        ]
      }
    },
    {
      "type": "Feature",
      "properties": {
        "time": "10-13 02:00",
        "model": "ECMWF 質心追蹤",
        "wind_speed": "30 km/h",
        "pressure": "1011.2 hPa",
        "category": "熱帶低氣壓",
        "color": "#3b82f6",
        "dist_hk": "709 km",
        "position": "16.19°N, 116.04°E",
        "type": "track_point"
      },
      "geometry": {
        "type": "Point",
        "coordinates": [
          116.04,
          16.19
        ]
      }
    },
    {
      "type": "Feature",
      "properties": {
        "time": "10-13 05:00",
        "model": "ECMWF 質心追蹤",
        "wind_speed": "27 km/h",
        "pressure": "1011.1 hPa",
        "category": "熱帶低氣壓",
        "color": "#3b82f6",
        "dist_hk": "709 km",
        "position": "16.19°N, 116.04°E",
        "type": "track_point"
      },
      "geometry": {
        "type": "Point",
        "coordinates": [
          116.04,
          16.19
        ]
      }
    },
    {
      "type": "Feature",
      "properties": {
        "time": "10-13 14:00",
        "model": "ECMWF 質心追蹤",
        "wind_speed": "27 km/h",
        "pressure": "1010.5 hPa",
        "category": "熱帶低氣壓",
        "color": "#3b82f6",
        "dist_hk": "715 km",
        "position": "16.25°N, 116.42°E",
        "type": "track_point"
      },
      "geometry": {
        "type": "Point",
        "coordinates": [
          116.42,
          16.25
        ]
      }
    },
    {
      "type": "Feature",
      "properties": {
        "time": "10-13 17:00",
        "model": "ECMWF 質心追蹤",
        "wind_speed": "29 km/h",
        "pressure": "1010.5 hPa",
        "category": "熱帶低氣壓",
        "color": "#3b82f6",
        "dist_hk": "695 km",
        "position": "16.13°N, 115.1°E",
        "type": "track_point"
      },
      "geometry": {
        "type": "Point",
        "coordinates": [
          115.1,
          16.13
        ]
      }
    },
    {
      "type": "Feature",
      "properties": {
        "time": "10-13 20:00",
        "model": "ECMWF 質心追蹤",
        "wind_speed": "30 km/h",
        "pressure": "1012.0 hPa",
        "category": "熱帶低氣壓",
        "color": "#3b82f6",
        "dist_hk": "679 km",
        "position": "16.26°N, 115.0°E",
        "type": "track_point"
      },
      "geometry": {
        "type": "Point",
        "coordinates": [
          115.0,
          16.26
        ]
      }
    },
    {
      "type": "Feature",
      "properties": {
        "time": "10-13 23:00",
        "model": "ECMWF 質心追蹤",
        "wind_speed": "30 km/h",
        "pressure": "1011.4 hPa",
        "category": "熱帶低氣壓",
        "color": "#3b82f6",
        "dist_hk": "688 km",
        "position": "16.3°N, 115.7°E",
        "type": "track_point"
      },
      "geometry": {
        "type": "Point",
        "coordinates": [
          115.7,
          16.3
        ]
      }
    },
    {
      "type": "Feature",
      "properties": {
        "time": "10-14 02:00",
        "model": "ECMWF 質心追蹤",
        "wind_speed": "30 km/h",
        "pressure": "1010.6 hPa",
        "category": "熱帶低氣壓",
        "color": "#3b82f6",
        "dist_hk": "700 km",
        "position": "16.3°N, 116.11°E",
        "type": "track_point"
      },
      "geometry": {
        "type": "Point",
        "coordinates": [
          116.11,
          16.3
        ]
      }
    },
    {
      "type": "Feature",
      "properties": {
        "time": "10-14 05:00",
        "model": "ECMWF 質心追蹤",
        "wind_speed": "30 km/h",
        "pressure": "1011.5 hPa",
        "category": "熱帶低氣壓",
        "color": "#3b82f6",
        "dist_hk": "693 km",
        "position": "16.28°N, 115.79°E",
        "type": "track_point"
      },
      "geometry": {
        "type": "Point",
        "coordinates": [
          115.79,
          16.28
        ]
      }
    }
  ]
}